{"type": "FeatureCollection", "features": [ {"type": "Feature", "properties": {"norad_id": 44506, "name": "GPS BIII-2  (PRN 18)", "group": "gnss", "lat": -20.72624919772087, "lon": 173.27217413890082, "alt_km": 20032.91502176374, "timestamp": "2025-12-18T10:51:26.047747+00:00", "meta": {"OBJECT_NAME": "GPS BIII-2  (PRN 18)", "OBJECT_ID": "2019-056A", "EPOCH": "2025-12-17T03:59:08.759040", "MEAN_MOTION": 2.00566605, "ECCENTRICITY": 0.00577134, "INCLINATION": 55.7199, "RA_OF_ASC_NODE": 338.3768, "ARG_OF_PERICENTER": 198.5058, "MEAN_ANOMALY": 157.947, "EPHEMERIS_TYPE": 0, "CLASSIFICATION_TYPE": "U", "NORAD_CAT_ID": 44506, "ELEMENT_SET_NO": 999, "REV_AT_EPOCH": 4641, "BSTAR": 0, "MEAN_MOTION_DOT": -8.7e-07, "MEAN_MOTION_DDOT": 0}, "tle": {"line1": "1 44506U 19056A   25351.16607360 -.00000087  00000+0  00000+0 0  9999", "line2": "2 44506  55.7199 338.3768 0057713 198.5058 157.9470  2.00566605 46412"}}, "geometry": {"type": "Point", "coordinates": [173.27217413890082, -20.72624919772087]}}, {"type": "Feature", "properties": {"norad_id": 44542, "name": "BEIDOU-3 M24 (C46)", "group": "gnss", "lat": 49.798968735540655, "lon": -49.17994941390504, "alt_km": 21519.96936543443, "timestamp": "2025-12-18T10:51:26.047758+00:00", "meta": {"OBJECT_NAME": "BEIDOU-3 M24 (C46)", "OBJECT_ID": "2019-061A", "EPOCH": "2025-12-16T03:22:44.327712", "MEAN_MOTION": 1.86229353, "ECCENTRICITY": 0.00096014, "INCLINATION": 54.4001, "RA_OF_ASC_NODE": 188.9011, "ARG_OF_PERICENTER": 24.8001, "MEAN_ANOMALY": 335.316, "EPHEMERIS_TYPE": 0, "CLASSIFICATION_TYPE": "U", "NORAD_CAT_ID": 44542, "ELEMENT_SET_NO": 999, "REV_AT_EPOCH": 4238, "BSTAR": 0, "MEAN_MOTION_DOT": 1.15e-06, "MEAN_MOTION_DDOT": 0}, "tle": {"line1": "1 44542U 19061A   25350.14079083  .00000115  00000+0  00000+0 0  9998", "line2": "2 44542  54.4001 188.9011 0009601  24.8001 335.3160  1.86229353 42381"}}, "geometry": {"type": "Point", "coordinates": [-49.17994941390504, 49.798968735540655]}}, {"type": "Feature", "properties": {"norad_id": 44543, "name": "BEIDOU-3 M23 (C45)", "group": "gnss", "lat": 18.18614317802623, "lon": -157.58227086071398, "alt_km": 21509.222703274743, "timestamp": "2025-12-18T10:51:26.047770+00:00", "meta": {"OBJECT_NAME": "BEIDOU-3 M23 (C45)", "OBJECT_ID": "2019-061B", "EPOCH": "2025-12-16T19:20:04.225344", "MEAN_MOTION": 1.86227685, "ECCENTRICITY": 0.00060954, "INCLINATION": 54.399, "RA_OF_ASC_NODE": 188.847, "ARG_OF_PERICENTER": 24.4715, "MEAN_ANOMALY": 334.1063, "EPHEMERIS_TYPE": 0, "CLASSIFICATION_TYPE": "U", "NORAD_CAT_ID": 44543, "ELEMENT_SET_NO": 999, "REV_AT_EPOCH": 4239, "BSTAR": 0, "MEAN_MOTION_DOT": 1.15e-06, "MEAN_MOTION_DDOT": 0}, "tle": {"line1": "1 44543U 19061B   25350.80560446  .00000115  00000+0  00000+0 0  9990", "line2": "2 44543  54.3990 188.8470 0006095  24.4715 334.1063  1.86227685 42394"}}, "geometry": {"type": "Point", "coordinates": [-157.58227086071398, 18.18614317802623]}}, {"type": "Feature", "properties": {"norad_id": 44624, "name": "EUTELSAT 5 WEST B (EGNOS/PRN 121)", "group": "gnss", "lat": -0.09549997181690348, "lon": -114.84609578102167, "alt_km": 35774.460259599226, "timestamp": "2025-12-18T10:51:26.047782+00:00", "meta": {"OBJECT_NAME": "EUTELSAT 5 WEST B (EGNOS/PRN 121)", "OBJECT_ID": "2019-067A", "EPOCH": "2025-12-17T18:26:15.676800", "MEAN_MOTION": 1.00270214, "ECCENTRICITY": 0.00030814, "INCLINATION": 0.0703, "RA_OF_ASC_NODE": 329.9765, "ARG_OF_PERICENTER": 297.7811, "MEAN_ANOMALY": 90.458, "EPHEMERIS_TYPE": 0, "CLASSIFICATION_TYPE": "U", "NORAD_CAT_ID": 44624, "ELEMENT_SET_NO": 999, "REV_AT_EPOCH": 2261, "BSTAR": 0, "MEAN_MOTION_DOT": -1.7e-07, "MEAN_MOTION_DDOT": 0}, "tle": {"line1": "1 44624U 19067A   25351.76823700 -.00000017  00000+0  00000+0 0  9999", "line2": "2 44624   0.0703 329.9765 0003081 297.7811  90.4580  1.00270214 22614"}}, "geometry": {"type": "Point", "coordinates": [-114.84609578102167, -0.09549997181690348]}}, {"type": "Feature", "properties": {"norad_id": 44709, "name": "BEIDOU-3 IGSO-3 (C40)", "group": "gnss", "lat": 53.79265042040056, "lon": -5.228063993263792, "alt_km": 35859.26861631762, "timestamp": "2025-12-18T10:51:26.047798+00:00", "meta": {"OBJECT_NAME": "BEIDOU-3 IGSO-3 (C40)", "OBJECT_ID": "2019-073A", "EPOCH": "2025-11-20T07:11:22.740000", "MEAN_MOTION": 1.00250097, "ECCENTRICITY": 0.0044538, "INCLINATION": 55.163, "RA_OF_ASC_NODE": 283.159, "ARG_OF_PERICENTER": 191.5856, "MEAN_ANOMALY": 168.2409, "EPHEMERIS_TYPE": 0, "CLASSIFICATION_TYPE": "U", "NORAD_CAT_ID": 44709, "ELEMENT_SET_NO": 999, "REV_AT_EPOCH": 2236, "BSTAR": 0, "MEAN_MOTION_DOT": -2.06e-06, "MEAN_MOTION_DDOT": 0}, "tle": {"line1": "1 44709U 19073A   25324.29956875 -.00000206  00000+0  00000+0 0  9998", "line2": "2 44709  55.1630 283.1590 0044538 191.5856 168.2409  1.00250097 22360"}}, "geometry": {"type": "Point", "coordinates": [-5.228063993263792, 53.79265042040056]}}, {"type": "Feature", "properties": {"norad_id": 44793, "name": "BEIDOU-3 M22 (C44)", "group": "gnss", "lat": -29.288034454805864, "lon": 150.10740461877984, "alt_km": 21547.93292129796, "timestamp": "2025-12-18T10:51:26.047814+00:00", "meta": {"OBJECT_NAME": "BEIDOU-3 M22 (C44)", "OBJECT_ID": "2019-078A", "EPOCH": "2025-12-17T14:11:57.933600", "MEAN_MOTION": 1.86232151, "ECCENTRICITY": 0.00059947, "INCLINATION": 54.1037, "RA_OF_ASC_NODE": 306.2155, "ARG_OF_PERICENTER": 24.2976, "MEAN_ANOMALY": 335.7178, "EPHEMERIS_TYPE": 0, "CLASSIFICATION_TYPE": "U", "NORAD_CAT_ID": 44793, "ELEMENT_SET_NO": 999, "REV_AT_EPOCH": 4126, "BSTAR": 0, "MEAN_MOTION_DOT": -8.9e-07, "MEAN_MOTION_DDOT": 0}, "tle": {"line1": "1 44793U 19078A   25351.59164275 -.00000089  00000+0  00000+0 0  9993", "line2": "2 44793  54.1037 306.2155 0005994  24.2976 335.7178  1.86232151 41264"}}, "geometry": {"type": "Point", "coordinates": [150.10740461877984, -29.288034454805864]}}, {"type": "Feature", "properties": {"norad_id": 44794, "name": "BEIDOU-3 M21 (C43)", "group": "gnss", "lat": 41.69102737804944, "lon": 85.9486663669173, "alt_km": 21527.773529206523, "timestamp": "2025-12-18T10:51:26.047825+00:00", "meta": {"OBJECT_NAME": "BEIDOU-3 M21 (C43)", "OBJECT_ID": "2019-078B", "EPOCH": "2025-12-16T15:43:55.727904", "MEAN_MOTION": 1.86227668, "ECCENTRICITY": 0.00041169, "INCLINATION": 54.078, "RA_OF_ASC_NODE": 306.2132, "ARG_OF_PERICENTER": 11.942, "MEAN_ANOMALY": 348.0544, "EPHEMERIS_TYPE": 0, "CLASSIFICATION_TYPE": "U", "NORAD_CAT_ID": 44794, "ELEMENT_SET_NO": 999, "REV_AT_EPOCH": 4125, "BSTAR": 0, "MEAN_MOTION_DOT": -9.5e-07, "MEAN_MOTION_DDOT": 0}, "tle": {"line1": "1 44794U 19078B   25350.65550611 -.00000095  00000+0  00000+0 0  9990", "line2": "2 44794  54.0780 306.2132 0004116  11.9420 348.0544  1.86227668 41256"}}, "geometry": {"type": "Point", "coordinates": [85.9486663669173, 41.69102737804944]}}, {"type": "Feature", "properties": {"norad_id": 44850, "name": "COSMOS 2544 (759)", "group": "gnss", "lat": 57.48539226831312, "lon": 125.44784408979689, "alt_km": 19158.940302004077, "timestamp": "2025-12-18T10:51:26.047836+00:00", "meta": {"OBJECT_NAME": "COSMOS 2544 (759)", "OBJECT_ID": "2019-088A", "EPOCH": "2025-12-16T11:40:43.010688", "MEAN_MOTION": 2.13101965, "ECCENTRICITY": 0.00138869, "INCLINATION": 65.4623, "RA_OF_ASC_NODE": 79.8328, "ARG_OF_PERICENTER": 249.7945, "MEAN_ANOMALY": 110.0707, "EPHEMERIS_TYPE": 0, "CLASSIFICATION_TYPE": "U", "NORAD_CAT_ID": 44850, "ELEMENT_SET_NO": 999, "REV_AT_EPOCH": 4682, "BSTAR": 0, "MEAN_MOTION_DOT": -5.3e-07, "MEAN_MOTION_DDOT": 0}, "tle": {"line1": "1 44850U 19088A   25350.48660892 -.00000053  00000+0  00000+0 0  9992", "line2": "2 44850  65.4623  79.8328 0013886 249.7945 110.0707  2.13101965 46826"}}, "geometry": {"type": "Point", "coordinates": [125.44784408979689, 57.48539226831312]}}, {"type": "Feature", "properties": {"norad_id": 44864, "name": "BEIDOU-3 M19 (C41)", "group": "gnss", "lat": -31.922390610435563, "lon": 44.35673651164668, "alt_km": 21490.842390711892, "timestamp": "2025-12-18T10:51:26.047849+00:00", "meta": {"OBJECT_NAME": "BEIDOU-3 M19 (C41)", "OBJECT_ID": "2019-090A", "EPOCH": "2025-12-16T21:16:08.319360", "MEAN_MOTION": 1.86231655, "ECCENTRICITY": 0.00181701, "INCLINATION": 56.3969, "RA_OF_ASC_NODE": 68.8236, "ARG_OF_PERICENTER": 285.0658, "MEAN_ANOMALY": 65.3992, "EPHEMERIS_TYPE": 0, "CLASSIFICATION_TYPE": "U", "NORAD_CAT_ID": 44864, "ELEMENT_SET_NO": 999, "REV_AT_EPOCH": 4083, "BSTAR": 0, "MEAN_MOTION_DOT": -7.7e-07, "MEAN_MOTION_DDOT": 0}, "tle": {"line1": "1 44864U 19090A   25350.88620740 -.00000077  00000+0  00000+0 0  9998", "line2": "2 44864  56.3969  68.8236 0018170 285.0658  65.3992  1.86231655 40836"}}, "geometry": {"type": "Point", "coordinates": [44.35673651164668, -31.922390610435563]}}, {"type": "Feature", "properties": {"norad_id": 44865, "name": "BEIDOU-3 M20 (C42)", "group": "gnss", "lat": 39.84267270866816, "lon": 102.45327065839707, "alt_km": 21539.284981081, "timestamp": "2025-12-18T10:51:26.047863+00:00", "meta": {"OBJECT_NAME": "BEIDOU-3 M20 (C42)", "OBJECT_ID": "2019-090B", "EPOCH": "2025-12-14T14:16:43.218624", "MEAN_MOTION": 1.86231589, "ECCENTRICITY": 0.00151163, "INCLINATION": 56.3967, "RA_OF_ASC_NODE": 68.9336, "ARG_OF_PERICENTER": 297.6834, "MEAN_ANOMALY": 46.2212, "EPHEMERIS_TYPE": 0, "CLASSIFICATION_TYPE": "U", "NORAD_CAT_ID": 44865, "ELEMENT_SET_NO": 999, "REV_AT_EPOCH": 4077, "BSTAR": 0, "MEAN_MOTION_DOT": -8.3e-07, "MEAN_MOTION_DDOT": 0}, "tle": {"line1": "1 44865U 19090B   25348.59494466 -.00000083  00000+0  00000+0 0  9995", "line2": "2 44865  56.3967  68.9336 0015116 297.6834  46.2212  1.86231589 40771"}}, "geometry": {"type": "Point", "coordinates": [102.45327065839707, 39.84267270866816]}}]}